{"spkid": "20085585", "covariance": {"labels": ["e", "q", "tp", "node", "peri", "i"], "data": [["9.529769140205895E-16", "-1.269121094748831E-15", "-4.347383400337686E-13", "2.768347102149985E-13", "-3.956231837061516E-13", "-2.033619968985068E-14"], ["-1.269121094748831E-15", "1.691953262703234E-15", "5.985515517810804E-13", "-3.827446269104097E-13", "5.477860919958899E-13", "3.082645613259796E-14"], ["-4.347383400337686E-13", "5.985515517810804E-13", "4.737257423904197E-10", "-3.435302965057422E-10", "5.354788843397811E-10", "6.127568601816858E-11"], ["2.768347102149985E-13", "-3.827446269104097E-13", "-3.435302965057422E-10", "1.661904882724665E-9", "-1.829612118087889E-9", "7.149244058844051E-11"], ["-3.956231837061516E-13", "5.477860919958899E-13", "5.354788843397811E-10", "-1.829612118087889E-9", "2.107583263751554E-9", "-3.862864894974289E-11"], ["-2.033619968985068E-14", "3.082645613259796E-14", "6.127568601816858E-11", "7.149244058844051E-11", "-3.862864894974289E-11", "4.593782305956055E-11"]], "elements": [{"label": "e", "sigma": 3.08703241644883e-08, "name": "e", "title": "eccentricity", "value": ".3562821074042412", "units": null}, {"label": "q", "name": "q", "sigma": 4.11333594872001e-08, "title": "perihelion distance", "value": ".8352253814295092", "units": "au"}, {"name": "tp", "sigma": 2.17652416111198e-05, "units": "TDB", "title": "time of perihelion passage", "value": "2456765.245847485590", "label": "tp"}, {"title": "longitude of the ascending node", "value": "2.368557238867423", "units": "deg", "sigma": 4.07664676262816e-05, "name": "om", "label": "node"}, {"sigma": 4.59084225796482e-05, "name": "w", "title": "argument of perihelion", "value": "95.35209157597389", "units": "deg", "label": "peri"}, {"title": "inclination", "value": "4.083287994418607", "units": "deg", "sigma": 6.77774468828389e-06, "name": "i", "label": "i"}], "epoch": "2457026.5"}, "elements": [{"sigma": "3.1024E-8", "name": "e", "title": "eccentricity", "value": ".3563524438492223", "units": null, "label": "e"}, {"label": "a", "value": "1.297617303550895", "title": "semi-major axis", "units": "au", "name": "a", "sigma": "2.0898E-9"}, {"label": "q", "value": ".8352082062494952", "title": "perihelion distance", "units": "au", "name": "q", "sigma": "4.1076E-8"}, {"label": "i", "name": "i", "sigma": "6.7782E-6", "value": "4.082462762793433", "title": "inclination; angle with respect to x-y ecliptic plane", "units": "deg"}, {"label": "node", "title": "longitude of the ascending node", "value": "2.294974309983", "units": "deg", "name": "om", "sigma": "4.0768E-5"}, {"name": "w", "sigma": "4.5903E-5", "title": "argument of perihelion", "value": "95.44911389625952", "units": "deg", "label": "peri"}, {"label": "M", "sigma": "2.2434E-5", "name": "ma", "units": "deg", "value": "77.58958288812937", "title": "mean anomaly"}, {"value": "2461084.135827487120", "title": "time of perihelion passage", "units": "TDB", "name": "tp", "sigma": "3.3373E-5", "label": "tp"}, {"value": "539.9062676369374", "title": "sidereal orbital period", "units": "d", "sigma": "1.3043E-6", "name": "per", "label": "period"}, {"units": "deg/d", "title": "mean motion", "value": ".6667824057232167", "sigma": "1.6108E-9", "name": "n", "label": "n"}, {"units": "au", "title": "aphelion distance", "value": "1.760026400852294", "name": "ad", "sigma": "2.8345E-9", "label": "Q"}], "epoch": "2461200.5"}